#dP2020  5 26  0  0  0.00000000      96 __u+U ITR00 FIT  IAC
## 2107 172800.00000000   900.00000000 58995 0.0000000000000
+  117   C06C07C08C09C10C11C12C13C14C16C19C20C21C22C23C24C25
+        C26C27C28C29C30C32C33C34C35C36C37C38C39C40C43C44C45
+        C46E01E02E03E04E05E07E08E09E11E12E13E14E15E18E19E21
+        E24E25E26E27E30E31E33E36G01G02G03G04G05G06G07G08G09
+        G10G11G12G13G14G15G16G17G18G19G20G21G22G23G24G25G26
+        G27G28G29G30G31G32J01J02J03R01R02R03R04R05R07R08R09
+        R11R12R13R14R15R16R17R18R19R20R21R22R23R24R26  0  0
++         7  9  7  8  9  5  6  8  5  9  7  7  6  8  6  9  5
++         8  8  7  6  9  8  8  7  9  8  8  6 14 11  8  7  8
++         9  6  7  6  6  8  6  5  6  6  8  7  7  6  6  6  8
++         6  6  6  7  6  8  6  6  7  5  6  6  7  6  5  6  6
++         6  7  6  6  6  5  6  6  6  5  6  6  6  6  6  6  6
++         7  7  6  6  6  5  8  9  9  6  6  6  6  6  6  7  5
++         6  5  7  7  7  7  5  6  7  8  7  6  7  5  7  0  0
%c M  cc GPS ccc cccc cccc cccc cccc ccccc ccccc ccccc ccccc
%c cc cc ccc ccc cccc cccc cccc cccc ccccc ccccc ccccc ccccc
%f  0.0000000  0.000000000  0.00000000000  0.000000000000000
%f  0.0000000  0.000000000  0.00000000000  0.000000000000000
%i    0    0    0    0      0      0      0      0         0
%i    0    0    0    0      0      0      0      0         0
/* INFORMATION & ANALYSIS CENTER (IAC)      ULTRA-RAPID DATA
/* S/V CLOCKS ARE ALIGNED TO GNSS TIME                      
/* G:C1WC2W R:C1PC2P E:C1XC5X C:C2IC6I J:C1CC2S             
/* PCV:IGS14_2101 OL/AL:FES2004  NONE     YN ORB:CoN CLK:CoN
*  2020 05 26  4 30  0.00000000
PC06  -7904.794231  26486.390031 -31320.251167    738.989079
PC07 -22756.438415  25408.454091  24663.114778    -62.688348
PC08 -17745.073221  37991.534414   5945.672785   -273.655435
PC09   6875.473044  35389.482745 -21289.533235    566.020047
PC10  -6170.898280  27261.435275  31650.517256   -279.728186
PC11  -2810.694758 -25324.634838 -11272.017757   -387.991970
PC12  10576.457429 -12659.778595 -22475.784890    382.786486
PC13  -8334.094009  40597.294767  -8378.406045    455.930479
PC14   1984.792221 -15892.875421  22887.001585    451.691006
PC16  -4402.057191  28516.905382 -30598.048395   -633.838376
PC19   9174.590020  15645.176514 -21182.127755    424.004252
PC20 -11633.380757  13770.735768 -21269.419199   -866.860726
PC21  26303.061264  -3568.188041   8680.538088   -446.651817
PC22  25099.645068   8523.942255  -8768.938664   -798.362122
PC23 -14990.124807  -6673.629396 -22567.481539   -866.955476
PC24  14963.606479 -23412.377102  -2494.969423   -810.480651
PC25   -932.171455 -21191.722462 -18127.976395   -629.777722
PC26  20676.321124 -12850.108853  13612.351402    694.319078
PC27 -15894.690004   2824.364513  22745.499532    336.427619
PC28 -17605.558149 -16577.017398  13924.355578   -225.429276
PC29  10016.844402  25870.136139   2993.980747    233.602384
PC30  -4377.853342  20492.610657  18412.748988    322.450146
PC32 -26251.332073   3750.306560  -8648.925779 999999.999999
PC33  -9121.128225 -15660.501746  21226.811466   -827.654307
PC34   4099.493222 -20849.576330 -18111.463167   -752.461973
PC35  18159.795923  16078.813895 -13772.543513   -827.228783
PC36    244.945075  21329.831711  18011.845408   -835.001389
PC37 -20971.978297  11824.399339 -14099.359300 999999.999999
PC38      0.000000      0.000000      0.000000 999999.999999
PC39    227.653127  30249.163825 -29310.361666 999999.999999
PC40 -14197.744813  22235.426445  32832.133522     46.699333
PC43  -9650.706109 -25994.238742  -3274.380947 999999.999999
PC44  15967.534210  -3255.290302 -22656.521313   -240.490822
PC45  14902.840206   6582.472682  22661.247045    140.522078
PC46 -14610.041555  23606.651565   2979.363400 999999.999999
PE01 -24497.357360  16252.805870   3438.746405   -864.288748
PE02  24449.196599 -16300.111404  -3534.684995    135.930876
PE03  17593.583154  -8045.092614  22414.651324   -302.772470
PE04   1764.954355  19445.572895 -22235.618696   -532.899876
PE05  26835.199595   8201.571818   9439.331232   -377.086494
PE07 -20326.995325 -19552.037510   8976.001476   -386.916965
PE08  -2156.483911 -19386.887492  22268.199772   6172.977394
PE09  20581.445287  19335.361263  -8891.941174   6049.266123
PE11   9828.230699  23481.583895 -15095.218280   3059.315003
PE12  -2543.297339  29251.715113   3646.670139   5787.035554
PE13  -9742.077826 -23644.537361  14919.155484    401.117065
PE14 -19323.776221  -6765.168836  12604.660092  -1026.955620
PE15   2272.495847 -29315.765493  -3445.727930    865.764259
PE18  23307.974255   -642.697043 -22405.450198  -1126.672427
PE19 -19142.341634   6303.376375 -21668.055448  -2666.306236
PE21 -25553.927440   3148.299760 -14605.047870   -600.990769
PE24  11423.453491  12322.422649  24353.404729   5436.283779
PE25  25511.849504  -3049.969883  14703.326604   -511.167348
PE26 -16224.095495  -3706.707072  24480.675741   3146.825027
PE27 -11708.039688 -12064.799295 -24362.564501    212.144140
PE30   9370.110870 -20153.427939 -19557.485022   3877.619301
PE31  -8944.377746  20126.786826  19777.322601   -472.663092
PE33 -12969.996337  17755.726091  19813.438438   -466.862579
PE36  16043.897675   4077.039811 -24534.752529    555.341787
PG01 -14224.675844  18146.989999  12650.934758   -385.231228
PG02  14456.632537   3832.642818 -21314.990251   -461.915948
PG03 -21009.427691  12521.237462 -10282.214645   -187.848248
PG04  -9895.045290  11706.047187 -21676.483917    -94.211384
PG05  25156.941442   -461.384632  -8951.863551    -13.391750
PG06   8949.097165  15777.843131 -19330.148998   -278.067626
PG07  -4613.568819  25596.315134   4164.139760   -289.650773
PG08 -18072.294287    824.384733  19546.270384    -35.298104
PG09   1207.453374  19466.906468 -18069.481241   -224.382902
PG10  -8643.578794 -13172.345976  21501.607041   -352.236238
PG11 -13781.571403  10049.697247  19930.639771   -266.847429
PG12  22092.877719 -10761.867926 -10107.589340    113.601587
PG13  19654.237378   8173.740954  15826.947584     13.003611
PG14 -18414.084593 -18947.825026  -3213.971765    -10.425112
PG15  18110.691341  -3318.200625  18953.474972   -228.673030
PG16 -25860.269368   -875.309975  -7177.873722   -162.650230
PG17  13709.132295  22090.643199   5969.353151    270.667182
PG18   5595.587590 -25720.704485   3463.035869    201.230349
PG19  17784.243299  19565.501110  -2952.857621   -153.819896
PG20   3603.375151 -17170.881337  19802.696848    527.627811
PG21   -524.368841 -25597.865989   8392.008773      3.417969
PG22      0.000000      0.000000      0.000000 999999.999999
PG23   4598.648779  20515.951317 -15633.054004   -111.154253
PG24  14359.050144 -17017.453785  14004.415409    -13.489782
PG25  13658.709259 -15391.912577 -16880.839261      7.177633
PG26 -19422.025573  -7077.994367 -16834.115171    213.410582
PG27 -21294.621504  -9771.719915  12686.013324   -303.629801
PG28   8889.578948  13434.792229  21674.336438    714.234032
PG29   2957.715011 -17187.488198 -20067.143328   -113.012505
PG30   3125.463885  22522.474673  13588.532475   -228.098350
PG31 -10178.802530 -14195.626052 -19913.158524    -44.871878
PG32 -15715.278698 -20979.483932   4835.115198    287.841298
PJ01 -30880.523547  15669.334569 -19380.817213   -297.891167
PJ02 -29043.407877  30468.877047   6450.674162     -0.214811
PJ03 -25348.142716  23604.653054  29118.093528     -3.373200
PR01 -10204.828942   8189.118172 -21885.238415     62.089296
PR02  12109.049014  12702.953894 -18441.965207    428.487773
PR03  23730.012771   8622.805025  -3412.824718     15.668905
PR04  21710.657753   -245.817597  13420.230365     50.447217
PR05   7439.587696  -8939.390358  22716.365984     51.135315
PR07 -23904.518793  -8472.954478   2957.706331    -36.926656
PR08 -21756.005022    215.200723 -13266.366457    -52.445772
PR09  -3018.989254 -12197.733614 -22196.490344    134.579027
PR11 -19886.254039  13381.760578  -8640.115677    -24.868894
PR12 -14530.850321  19338.161083   8151.054165    133.813642
PR13   -471.137773  14436.401514  21005.125299    -39.167115
PR14  13811.162564    995.311109  21436.257249     51.600854
PR15  19922.155517 -12788.364097   9520.359040    106.532450
PR16  13690.173947 -19630.321109  -8676.384857     -3.747280
PR17  11652.360867  14551.245816 -17423.874601    327.842731
PR18  10000.702537  -3192.648102 -23238.475894     36.634454
PR19   3743.935609 -18721.077187 -16920.946356    -95.037674
PR20  -5810.136472 -24830.456553   1301.389008   -412.635171
PR21 -11644.574504 -13689.733018  18087.598728   -126.998112
PR22  -9282.004890   5691.656237  23057.737593     -2.999406
PR23     37.917035  22804.733086  11412.063470    307.941388
PR24   6308.855504  24638.176517  -2002.105012      0.031321
PR26  -4178.443085 -24901.603537  -3524.535081   -394.707471
EOF
